{
    "links": {
        "self": "http://www.neowsapp.com/rest/v1/neo/3843797?api_key=iIulBulltgU6a56xZRHN4H3l9WmuAYTsLGpBGhQ2"
    },
    "id": "3843797",
    "neo_reference_id": "3843797",
    "name": "(2019 RQ1)",
    "designation": "2019 RQ1",
    "nasa_jpl_url": "http://ssd.jpl.nasa.gov/sbdb.cgi?sstr=3843797",
    "absolute_magnitude_h": 24.1,
    "estimated_diameter": {
        "kilometers": {
            "estimated_diameter_min": 0.040230458,
            "estimated_diameter_max": 0.0899580388
        },
        "meters": {
            "estimated_diameter_min": 40.2304579834,
            "estimated_diameter_max": 89.9580388169
        },
        "miles": {
            "estimated_diameter_min": 0.0249980399,
            "estimated_diameter_max": 0.0558973165
        },
        "feet": {
            "estimated_diameter_min": 131.9896957704,
            "estimated_diameter_max": 295.1379320721
        }
    },
    "is_potentially_hazardous_asteroid": false,
    "close_approach_data": [
        {
            "close_approach_date": "2019-09-01",
            "close_approach_date_full": "2019-Sep-01 13:19",
            "epoch_date_close_approach": 1567343940000,
            "relative_velocity": {
                "kilometers_per_second": "23.6451479356",
                "kilometers_per_hour": "85122.5325680052",
                "miles_per_hour": "52891.8314170475"
            },
            "miss_distance": {
                "astronomical": "0.0456205571",
                "lunar": "17.7463967119",
                "kilometers": "6824738.170373377",
                "miles": "4240695.6553995226"
            },
            "orbiting_body": "Earth"
        }
    ],
    "orbital_data": {
        "orbit_id": "6",
        "orbit_determination_date": "2019-09-21 05:55:57",
        "first_observation_date": "2019-09-05",
        "last_observation_date": "2019-09-21",
        "data_arc_in_days": 16,
        "observations_used": 33,
        "orbit_uncertainty": "9",
        "minimum_orbit_intersection": ".00863527",
        "jupiter_tisserand_invariant": "2.842",
        "epoch_osculation": "2458741.5",
        "eccentricity": ".8004197139741744",
        "semi_major_axis": "2.611642515919805",
        "inclination": ".5549035975069381",
        "ascending_node_longitude": "88.16102574638813",
        "orbital_period": "1541.59048790118",
        "perihelion_distance": ".5212323603244814",
        "perihelion_argument": "157.8517032267579",
        "aphelion_distance": "4.702052671515129",
        "perihelion_time": "2458683.019561851117",
        "mean_anomaly": "13.65664740333259",
        "mean_motion": ".233525052746094",
        "equinox": "J2000",
        "orbit_class": {
            "orbit_class_type": "APO",
            "orbit_class_description": "Near-Earth asteroid orbits which cross the Earth’s orbit similar to that of 1862 Apollo",
            "orbit_class_range": "a (semi-major axis) > 1.0 AU; q (perihelion) < 1.017 AU"
        }
    },
    "is_sentry_object": false
}